NORAD_CAT_ID,OBJECT_NAME,OBJECT_TYPE,EPOCH,MEAN_MOTION,ECCENTRICITY,INCLINATION,RA_OF_ASC_NODE,ARG_OF_PERICENTER,MEAN_ANOMALY,BSTAR,MEAN_MOTION_DOT,MEAN_MOTION_DDOT,TLE_LINE0,TLE_LINE1,TLE_LINE2,SEMIMAJOR_AXIS,PERIOD,APOGEE,PERIGEE,DECAYED
51743.0,STARLINK-3512,PAYLOAD,2023-08-19 20:40:17,15.08832061,0.0001525,53.2162,176.7568,91.7042,268.4124,7.9038e-05,9.7e-06,0.0,0 STARLINK-3512,1 51743U 22016AF  23231.86131908  .00000970  00000-0  79038-4 0  9995,2 51743  53.2162 176.7568 0001525  91.7042 268.4124 15.08832061 84000,6917.905,95.438,540.825,538.715,0.0
51743.0,STARLINK-3512,PAYLOAD,2023-08-21 02:52:36,15.08847131,0.0001259,53.217,171.108,93.0981,267.0155,0.00014294,1.988e-05,0.0,0 STARLINK-3512,1 51743U 22016AF  23233.11986995  .00001988  00000-0  14294-3 0  9991,2 51743  53.2170 171.1080 0001259  93.0981 267.0155 15.08847131 84191,6917.859,95.437,540.595,538.853,0.0
51743.0,STARLINK-3512,PAYLOAD,2023-08-21 20:21:51,15.0883735,0.0001236,53.2168,167.8356,89.0409,271.0724,6.056e-05,6.76e-06,0.0,0 STARLINK-3512,1 51743U 22016AF  23233.84851828  .00000676  00000-0  60560-4 0  9998,2 51743  53.2168 167.8356 0001236  89.0409 271.0724 15.08837350 84303,6917.888,95.438,540.609,538.898,0.0
51743.0,STARLINK-3512,PAYLOAD,2023-08-23 02:34:11,15.08843094,0.0001368,53.2164,162.1862,91.2949,268.82,7.3664e-05,8.85e-06,0.0,0 STARLINK-3512,1 51743U 22016AF  23235.10707843  .00000885  00000-0  73664-4 0  9997,2 51743  53.2164 162.1862 0001368  91.2949 268.8200 15.08843094 84494,6917.871,95.437,540.682,538.79,0.0
51743.0,STARLINK-3512,PAYLOAD,2023-08-24 04:00:21,15.08842919,0.000136,53.2163,157.4274,90.6381,269.4767,0.00017144,2.442e-05,0.0,0 STARLINK-3512,1 51743U 22016AF  23236.16692075  .00002442  00000-0  17144-3 0  9995,2 51743  53.2163 157.4274 0001360  90.6381 269.4767 15.08842919 83525,6917.871,95.437,540.677,538.796,0.0
51743.0,STARLINK-3512,PAYLOAD,2023-08-25 02:15:46,15.08839376,0.000125,53.2158,153.2646,95.7802,264.3333,1.2798e-05,-8.4e-07,0.0,0 STARLINK-3512,1 51743U 22016AF  23237.09428349 -.00000084  00000-0  12798-4 0  9991,2 51743  53.2158 153.2646 0001250  95.7802 264.3333 15.08839376 84794,6917.882,95.438,540.612,538.883,0.0
51743.0,STARLINK-3512,PAYLOAD,2023-08-25 18:09:37,15.08846468,0.0001195,53.2168,150.2891,116.7372,243.3742,4.1285e-05,3.69e-06,0.0,0 STARLINK-3512,1 51743U 22016AF  23237.75668134  .00000369  00000-0  41285-4 0  9990,2 51743  53.2168 150.2891 0001195 116.7372 243.3742 15.08846468 83765,6917.861,95.437,540.552,538.899,0.0
51743.0,STARLINK-3512,PAYLOAD,2023-08-26 00:31:09,15.08852257,0.0001148,53.2164,149.1027,89.367,270.7454,0.0001121,1.497e-05,0.0,0 STARLINK-3512,1 51743U 22016AF  23238.02163606  .00001497  00000-0  11210-3 0  9992,2 51743  53.2164 149.1027 0001148  89.3670 270.7454 15.08852257 84930,6917.843,95.437,540.502,538.914,0.0
51743.0,STARLINK-3512,PAYLOAD,2023-08-26 03:41:55,15.08851255,0.0001206,53.2156,148.5072,99.0049,261.108,0.00029373,4.391e-05,0.0,0 STARLINK-3512,1 51743U 22016AF  23238.15411674  .00004391  00000-0  29373-3 0  9992,2 51743  53.2156 148.5072 0001206  99.0049 261.1080 15.08851255 83820,6917.846,95.437,540.545,538.877,0.0
51743.0,STARLINK-3512,PAYLOAD,2023-08-26 18:00:24,15.08839222,0.0001413,53.2166,145.8341,79.5849,280.5303,4.9937e-05,5.07e-06,0.0,0 STARLINK-3512,1 51743U 22016AF  23238.75028451  .00000507  00000-0  49937-4 0  9999,2 51743  53.2166 145.8341 0001413  79.5849 280.5303 15.08839222 85040,6917.883,95.438,540.725,538.77,0.0
51743.0,STARLINK-3512,PAYLOAD,2023-08-26 21:11:10,15.08839837,0.000129,53.2158,145.2363,85.6516,274.4623,0.00010222,1.339e-05,0.0,0 STARLINK-3512,1 51743U 22016AF  23238.88276408  .00001339  00000-0  10222-3 0  9998,2 51743  53.2158 145.2363 0001290  85.6516 274.4623 15.08839837 83936,6917.881,95.438,540.638,538.853,0.0
51743.0,STARLINK-3512,PAYLOAD,2023-08-27 03:32:43,15.08844986,0.0001315,53.216,144.0481,77.6329,282.481,0.00016962,2.413e-05,0.0,0 STARLINK-3512,1 51743U 22016AF  23239.14772243  .00002413  00000-0  16962-3 0  9997,2 51743  53.2160 144.0481 0001315  77.6329 282.4810 15.08844986 83970,6917.865,95.437,540.64,538.82,0.0
51743.0,STARLINK-3512,PAYLOAD,2023-08-27 21:01:57,15.08840766,0.0001391,53.2161,140.7757,83.7997,276.3154,5.3833e-05,5.69e-06,0.0,0 STARLINK-3512,1 51743U 22016AF  23239.87636394  .00000569  00000-0  53833-4 0  9992,2 51743  53.2161 140.7757 0001391  83.7997 276.3154 15.08840766 84081,6917.878,95.438,540.705,538.781,0.0
51743.0,STARLINK-3512,PAYLOAD,2023-08-28 01:48:07,15.08845324,0.0001485,53.2172,139.8858,97.3138,262.8023,0.00010313,1.354e-05,0.0,0 STARLINK-3512,1 51743U 22016AF  23240.07508178  .00001354  00000-0  10313-3 0  9992,2 51743  53.2172 139.8858 0001485  97.3138 262.8023 15.08845324 85245,6917.864,95.437,540.756,538.702,0.0
51743.0,STARLINK-3512,PAYLOAD,2023-08-28 20:52:45,15.08836312,0.0001531,53.2167,136.3137,99.4505,260.666,2.7622e-05,1.52e-06,0.0,0 STARLINK-3512,1 51743U 22016AF  23240.86996721  .00000152  00000-0  27622-4 0  9991,2 51743  53.2167 136.3137 0001531  99.4505 260.6660 15.08836312 84232,6917.892,95.438,540.816,538.698,0.0
51743.0,STARLINK-3512,PAYLOAD,2023-08-29 00:03:31,15.08841645,0.0001463,53.2161,135.7208,84.2275,275.8884,0.00010783,1.429e-05,0.0,0 STARLINK-3512,1 51743U 22016AF  23241.00244474  .00001429  00000-0  10783-3 0  9996,2 51743  53.2161 135.7208 0001463  84.2275 275.8884 15.08841645 85386,6917.875,95.437,540.752,538.728,0.0
51743.0,STARLINK-3512,PAYLOAD,2023-08-29 09:35:50,15.08838339,0.0001508,53.2167,133.9353,84.662,275.4544,7.0035e-05,8.27e-06,0.0,0 STARLINK-3512,1 51743U 22016AF  23241.39988665  .00000827  00000-0  70035-4 0  9993,2 51743  53.2167 133.9353 0001508  84.6620 275.4544 15.08838339 84318,6917.885,95.438,540.794,538.707,0.0
51743.0,STARLINK-3512,PAYLOAD,2023-08-29 23:54:18,15.08837266,0.0001468,53.2166,131.2624,93.2075,266.9085,-1.8799e-05,-5.87e-06,0.0,0 STARLINK-3512,1 51743U 22016AF  23241.99604925 -.00000587  00000-0 -18799-4 0  9997,2 51743  53.2166 131.2624 0001468  93.2075 266.9085 15.08837266 85532,6917.889,95.438,540.769,538.738,0.0
51743.0,STARLINK-3512,PAYLOAD,2023-08-30 09:26:37,15.08839536,0.000146,53.2166,129.4775,87.0823,273.0336,4.318e-05,3.99e-06,0.0,0 STARLINK-3512,1 51743U 22016AF  23242.39348924  .00000399  00000-0  43180-4 0  9997,2 51743  53.2166 129.4775 0001460  87.0823 273.0336 15.08839536 84463,6917.882,95.438,540.757,538.737,0.0
51743.0,STARLINK-3512,PAYLOAD,2023-08-31 01:20:28,15.08850415,0.0001604,53.2164,126.5035,86.4633,273.6542,0.00034925,5.276e-05,0.0,0 STARLINK-3512,1 51743U 22016AF  23243.05588475  .00005276  00000-0  34925-3 0  9993,2 51743  53.2164 126.5035 0001604  86.4633 273.6542 15.08850415 85690,6917.849,95.437,540.823,538.604,0.0
51743.0,STARLINK-3512,PAYLOAD,2023-09-01 09:08:12,15.08825728,0.0001206,53.216,120.5606,96.4709,263.6421,-0.00022058,-3.795e-05,0.0,0 STARLINK-3512,1 51743U 22016AF  23244.38070091 -.00003795  00000-0 -22058-3 0  9990,2 51743  53.2160 120.5606 0001206  96.4709 263.6421 15.08825728 85893,6917.924,95.438,540.623,538.955,0.0
51743.0,STARLINK-3512,PAYLOAD,2023-09-01 15:29:43,15.08859796,8.19e-05,53.2179,119.3678,262.2179,97.872,-0.00020185,-3.5e-05,0.0,0 STARLINK-3512,1 51743U 22016AF  23244.64564261 -.00003500  00000-0 -20185-3 0  9999,2 51743  53.2179 119.3678 0000819 262.2179  97.8720 15.08859796 85937,6917.82,95.436,540.251,539.118,0.0
51743.0,STARLINK-3512,PAYLOAD,2023-09-01 21:51:13,15.08903238,5.81e-05,53.2132,118.1791,78.3887,281.717,0.00098605,0.00015467,0.0,0 STARLINK-3512,1 51743U 22016AF  23244.91057167  .00015467  00000-0  98605-3 0  9996,2 51743  53.2132 118.1791 0000581  78.3887 281.7170 15.08903238 84840,6917.687,95.434,539.954,539.15,0.0
51743.0,STARLINK-3512,PAYLOAD,2023-09-02 01:01:54,15.09017047,0.0001383,53.2178,117.5816,86.1741,273.9409,0.0023933,0.00038194,0.0,0 STARLINK-3512,1 51743U 22016AF  23245.04298802  .00038194  00000-0  23933-2 0  9997,2 51743  53.2178 117.5816 0001383  86.1741 273.9409 15.09017047 85998,6917.339,95.426,540.161,538.248,0.0
51743.0,STARLINK-3512,PAYLOAD,2023-09-02 08:58:40,15.0914084,5.9e-05,53.2147,116.0936,157.309,202.7928,0.0037154,0.00059837,0.0,0 STARLINK-3512,1 51743U 22016AF  23245.37407446  .00059837  00000-0  37154-2 0  9996,2 51743  53.2147 116.0936 0000590 157.3090 202.7928 15.09140840 86049,6916.961,95.419,539.234,538.418,0.0
51743.0,STARLINK-3512,PAYLOAD,2023-09-02 15:20:00,15.09312698,8.22e-05,53.2187,114.9036,71.9867,288.1215,0.0057585,0.00093788,0.0,0 STARLINK-3512,1 51743U 22016AF  23245.63889923  .00093788  00000-0  57585-2 0  9992,2 51743  53.2187 114.9036 0000822  71.9867 288.1215 15.09312698 86085,6916.436,95.408,538.869,537.732,0.0
51743.0,STARLINK-3512,PAYLOAD,2023-09-02 21:41:17,15.09499934,0.0001064,53.214,113.7137,74.8623,285.2487,0.0072872,0.00119815,0.0,0 STARLINK-3512,1 51743U 22016AF  23245.90367909  .00119815  00000-0  72872-2 0  9993,2 51743  53.2140 113.7137 0001064  74.8623 285.2487 15.09499934 84990,6915.864,95.396,538.465,536.993,0.0
51743.0,STARLINK-3512,PAYLOAD,2023-09-03 02:27:11,15.09679181,0.0001217,53.2157,112.8203,84.3443,275.7688,0.0089677,0.00148851,0.0,0 STARLINK-3512,1 51743U 22016AF  23246.10221657  .00148851  00000-0  89677-2 0  9998,2 51743  53.2157 112.8203 0001217  84.3443 275.7688 15.09679181 86159,6915.317,95.385,538.023,536.34,0.0
51743.0,STARLINK-3512,PAYLOAD,2023-09-03 14:00:01,15.10446135,9.71e-05,53.2149,110.6546,90.8188,6.3452,0.0018932,0.00031337,0.0,0 STARLINK-3512,1 51743U 22016AF  23246.58334491  .00031337  00000-0  18932-2 0  9997,2 51743  53.2149 110.6546 0000971  90.8188   6.3452 15.10446135 86239,6912.975,95.336,535.512,534.169,0.0
51743.0,STARLINK-3512,PAYLOAD,2023-09-04 14:00:01,15.1046321,9.33e-05,53.2155,106.1538,98.6074,39.2278,0.0022803,0.00037858,0.0,0 STARLINK-3512,1 51743U 22016AF  23247.58334491  .00037858  00000-0  22803-2 0  9994,2 51743  53.2155 106.1538 0000933  98.6074  39.2278 15.10463210 86385,6912.923,95.335,535.433,534.143,0.0
